H1 CPF 01  gfz 2022 03 05 13  5642 tandemx   
H2 1003001  6202 36605    2022 03 05 12 59 42 2022 03 10 00 00 42   120 1 1  0 0 0
H9
10 0 59647  82062.000000  0      65718.428   2466575.033  -6438593.614
10 0 59647  82182.000000  0     387550.831   1642682.296  -6685563.252
10 0 59647  82302.000000  0     687958.067    784897.000  -6815924.050
10 0 59647  82422.000000  0     961281.423    -91496.701  -6827435.888
10 0 59647  82542.000000  0    1202600.906   -970808.706  -6719902.347
10 0 59647  82662.000000  0    1407821.101  -1837216.875  -6495172.046
10 0 59647  82782.000000  0    1573739.267  -2675043.497  -6157110.526
10 0 59647  82902.000000  0    1698095.482  -3469033.057  -5711542.592
10 0 59647  83022.000000  0    1779602.596  -4204629.420  -5166163.020
10 0 59647  83142.000000  0    1817956.090  -4868243.954  -4530413.203
10 0 59647  83262.000000  0    1813823.891  -5447509.751  -3815328.977
10 0 59647  83382.000000  0    1768815.439  -5931520.742  -3033359.435
10 0 59647  83502.000000  0    1685429.596  -6311047.992  -2198156.841
10 0 59647  83622.000000  0    1566983.705  -6578726.994  -1324340.750
10 0 59647  83742.000000  0    1417524.485  -6729211.773   -427241.822
10 0 59647  83862.000000  0    1241722.442  -6759291.907    477372.420
10 0 59647  83982.000000  0    1044753.142  -6667965.727   1373581.344
10 0 59647  84102.000000  0     832166.650  -6456471.528   2245600.595
10 0 59647  84222.000000  0     609750.736  -6128271.226   3078070.387
10 0 59647  84342.000000  0     383388.612  -5688988.453   3856333.726
10 0 59647  84462.000000  0     158916.525  -5146304.787   4566698.796
10 0 59647  84582.000000  0     -58014.833  -4509816.567   5196682.419
10 0 59647  84702.000000  0    -262072.239  -3790854.973   5735228.929
10 0 59647  84822.000000  0    -448361.538  -3002274.395   6172901.814
10 0 59647  84942.000000  0    -612537.231  -2158213.398   6502042.750
10 0 59647  85062.000000  0    -750897.629  -1273837.053   6716898.041
10 0 59647  85182.000000  0    -860463.811   -365062.711   6813714.528
10 0 59647  85302.000000  0    -939041.589    551727.809   6790801.998
10 0 59647  85422.000000  0    -985264.582   1459983.608   6648560.709
10 0 59647  85542.000000  0    -998617.538   2343282.988   6389474.585
10 0 59647  85662.000000  0    -979440.437   3185630.098   6018070.570
10 0 59647  85782.000000  0    -928913.483   3971746.078   5540844.354
10 0 59647  85902.000000  0    -849022.270   4687349.364   4966152.159
10 0 59647  86022.000000  0    -742504.775   5319421.371   4304070.973
10 0 59647  86142.000000  0    -612780.245   5856451.822   3566225.183
10 0 59647  86262.000000  0    -463861.908   6288656.249   2765586.741
10 0 59647  86382.000000  0    -300256.322   6608167.918   1916247.208
99
